GLOBALSTAR M094         
1 39074U 13005C   24289.18131449 -.00000085  00000+0  10303-3 0  9991
2 39074  51.9947 208.0869 0000993  71.7350 288.3624 12.62269495541455
GLOBALSTAR M096         
1 39075U 13005D   24288.87777280 -.00000091  00000+0  72528-4 0  9991
2 39075  52.0063 257.3343 0000842  66.2655 293.8300 12.62271585540668
GLOBALSTAR M078         
1 39076U 13005E   24289.16779424  .00000004  00000+0  60300-3 0  9994
2 39076  51.9894 341.2936 0000988  25.0095 335.0820 12.62275410539184
GLOBALSTAR M095         
1 39077U 13005F   24289.19457107 -.00000049  00000+0  30795-3 0  9994
2 39077  51.9819 338.5335 0000865  59.3588 300.7363 12.62266291539194
GLOBALSTAR M087         
1 52888U 22064A   24288.81412372 -.00000038  00000+0  17131-3 0  9994
2 52888  51.9742 151.2432 0008813 312.4695  47.5460 13.37590014113531
